start=new Date('2023-01-02T00:00:00.000Z').valueOf();
sats=[{"OBJECT_NAME":"STARLINK-1556","RA_OF_ASC_NODE":"308.1942","INCLINATION":"53.0530","TIME_SYSTEM":"UTC","TLE_LINE2":"2 46033  53.0530 308.1942 0001797  82.8872 277.2321 15.06374452133558","LAUNCH_DATE":"2020-08-07","MEAN_ANOMALY":"277.2321","OBJECT_TYPE":"PAYLOAD","GP_ID":"221928745","COUNTRY_CODE":"US","REV_AT_EPOCH":"13355","ECCENTRICITY":"0.00017970","OBJECT_ID":"2020-055G","MEAN_MOTION_DDOT":"0.0000000000000","EPOCH":"2023-01-01T13:00:54.134208","TLE_LINE1":"1 46033U 20055G   23001.54229322 -.00005690  00000-0 -36362-3 0  9998","DECAY_DATE":null,"SITE":"AFETR","BSTAR":"-0.00036362000000","REF_FRAME":"TEME","RCS_SIZE":"LARGE","APOAPSIS":"548.536","FILE":"3728759","ARG_OF_PERICENTER":"82.8872","MEAN_MOTION":"15.06374452","PERIOD":"95.594","EPHEMERIS_TYPE":"0","PERIAPSIS":"546.047","SEMIMAJOR_AXIS":"6925.427","CENTER_NAME":"EARTH","NORAD_CAT_ID":"46033","CLASSIFICATION_TYPE":"U","ELEMENT_SET_NO":"999","MEAN_ELEMENT_THEORY":"SGP4","MEAN_MOTION_DOT":"-0.00005690"},{"TIME_SYSTEM":"UTC","OBJECT_NAME":"STARLINK-1557","RA_OF_ASC_NODE":"308.1690","INCLINATION":"53.0560","LAUNCH_DATE":"2020-08-07","TLE_LINE2":"2 46034  53.0560 308.1690 0002100  49.0277 311.0894 15.06397299133067","REV_AT_EPOCH":"13306","ECCENTRICITY":"0.00021000","OBJECT_ID":"2020-055H","MEAN_ANOMALY":"311.0894","GP_ID":"221965615","OBJECT_TYPE":"PAYLOAD","COUNTRY_CODE":"US","TLE_LINE1":"1 46034U 20055H   23001.54599543 -.00003709  00000-0 -23022-3 0  9992","DECAY_DATE":null,"BSTAR":"-0.00023022000000","SITE":"AFETR","MEAN_MOTION_DDOT":"0.0000000000000","EPOCH":"2023-01-01T13:06:14.005152","RCS_SIZE":"LARGE","REF_FRAME":"TEME","APOAPSIS":"548.676","FILE":"3728900","ARG_OF_PERICENTER":"49.0277","MEAN_MOTION":"15.06397299","SEMIMAJOR_AXIS":"6925.357","PERIOD":"95.592","PERIAPSIS":"545.768","EPHEMERIS_TYPE":"0","ELEMENT_SET_NO":"999","MEAN_ELEMENT_THEORY":"SGP4","MEAN_MOTION_DOT":"-0.00003709","NORAD_CAT_ID":"46034","CENTER_NAME":"EARTH","CLASSIFICATION_TYPE":"U"},{"TLE_LINE2":"2 46035  53.0568 308.1332 0002004  48.8145 311.3017 15.06381043133063","LAUNCH_DATE":"2020-08-07","RA_OF_ASC_NODE":"308.1332","OBJECT_NAME":"STARLINK-1558","INCLINATION":"53.0568","TIME_SYSTEM":"UTC","EPOCH":"2023-01-01T13:16:51.318336","MEAN_MOTION_DDOT":"0.0000000000000","TLE_LINE1":"1 46035U 20055J   23001.55337174 -.00003590  00000-0 -22230-3 0  9992","BSTAR":"-0.00022230000000","DECAY_DATE":null,"SITE":"AFETR","OBJECT_TYPE":"PAYLOAD","GP_ID":"221965612","MEAN_ANOMALY":"311.3017","COUNTRY_CODE":"US","REV_AT_EPOCH":"13306","OBJECT_ID":"2020-055J","ECCENTRICITY":"0.00020040","FILE":"3728900","APOAPSIS":"548.660","MEAN_MOTION":"15.06381043","ARG_OF_PERICENTER":"48.8145","REF_FRAME":"TEME","RCS_SIZE":"LARGE","NORAD_CAT_ID":"46035","CENTER_NAME":"EARTH","CLASSIFICATION_TYPE":"U","ELEMENT_SET_NO":"999","MEAN_MOTION_DOT":"-0.00003590","MEAN_ELEMENT_THEORY":"SGP4","PERIOD":"95.593","PERIAPSIS":"545.884","EPHEMERIS_TYPE":"0","SEMIMAJOR_AXIS":"6925.407"},{"TLE_LINE1":"1 46036U 20055K   23001.87035095 -.00007732  00000-0 -50098-3 0  9990","DECAY_DATE":null,"BSTAR":"-0.00050098000000","SITE":"AFETR","EPOCH":"2023-01-01T20:53:18.322080","MEAN_MOTION_DDOT":"0.0000000000000","OBJECT_ID":"2020-055K","ECCENTRICITY":"0.00020930","REV_AT_EPOCH":"13363","COUNTRY_CODE":"US","GP_ID":"221985856","OBJECT_TYPE":"PAYLOAD","MEAN_ANOMALY":"310.0241","LAUNCH_DATE":"2020-08-07","TLE_LINE2":"2 46036  53.0518 306.7288 0002093  50.0932 310.0241 15.06377816133631","TIME_SYSTEM":"UTC","INCLINATION":"53.0518","RA_OF_ASC_NODE":"306.7288","OBJECT_NAME":"STARLINK-1560","MEAN_MOTION_DOT":"-0.00007732","MEAN_ELEMENT_THEORY":"SGP4","ELEMENT_SET_NO":"999","CLASSIFICATION_TYPE":"U","CENTER_NAME":"EARTH","NORAD_CAT_ID":"46036","SEMIMAJOR_AXIS":"6925.417","PERIAPSIS":"545.832","EPHEMERIS_TYPE":"0","PERIOD":"95.594","MEAN_MOTION":"15.06377816","ARG_OF_PERICENTER":"50.0932","FILE":"3728952","APOAPSIS":"548.731","RCS_SIZE":"LARGE","REF_FRAME":"TEME"},{"EPOCH":"2023-01-01T20:47:59.449056","MEAN_MOTION_DDOT":"0.0000000000000","TLE_LINE1":"1 46037U 20055L   23001.86666029  .00000623  00000-0  60788-4 0  9995","BSTAR":"0.00006078800000","DECAY_DATE":null,"SITE":"AFETR","OBJECT_TYPE":"PAYLOAD","GP_ID":"221987105","MEAN_ANOMALY":"311.4509","COUNTRY_CODE":"US","REV_AT_EPOCH":"13362","OBJECT_ID":"2020-055L","ECCENTRICITY":"0.00017140","TLE_LINE2":"2 46037  53.0539 306.7410 0001714  48.6627 311.4509 15.06371909133623","LAUNCH_DATE":"2020-08-07","RA_OF_ASC_NODE":"306.7410","OBJECT_NAME":"STARLINK-1565","INCLINATION":"53.0539","TIME_SYSTEM":"UTC","NORAD_CAT_ID":"46037","CENTER_NAME":"EARTH","CLASSIFICATION_TYPE":"U","ELEMENT_SET_NO":"999","MEAN_MOTION_DOT":"0.00000623","MEAN_ELEMENT_THEORY":"SGP4","PERIOD":"95.594","EPHEMERIS_TYPE":"0","PERIAPSIS":"546.113","SEMIMAJOR_AXIS":"6925.435","FILE":"3728952","APOAPSIS":"548.487","MEAN_MOTION":"15.06371909","ARG_OF_PERICENTER":"48.6627","REF_FRAME":"TEME","RCS_SIZE":"LARGE"},{"TLE_LINE2":"2 46038  53.0554 308.1503 0001647  50.4977 309.6158 15.06384821133068","LAUNCH_DATE":"2020-08-07","INCLINATION":"53.0554","OBJECT_NAME":"STARLINK-1567","RA_OF_ASC_NODE":"308.1503","TIME_SYSTEM":"UTC","MEAN_MOTION_DDOT":"0.0000000000000","EPOCH":"2023-01-01T13:11:31.058592","TLE_LINE1":"1 46038U 20055M   23001.54966503  .00009259  00000-0  63990-3 0  9992","DECAY_DATE":null,"BSTAR":"0.00063990000000","SITE":"AFETR","COUNTRY_CODE":"US","MEAN_ANOMALY":"309.6158","GP_ID":"221965750","OBJECT_TYPE":"PAYLOAD","ECCENTRICITY":"0.00016470","OBJECT_ID":"2020-055M","REV_AT_EPOCH":"13306","ARG_OF_PERICENTER":"50.4977","MEAN_MOTION":"15.06384821","APOAPSIS":"548.401","FILE":"3728905","REF_FRAME":"TEME","RCS_SIZE":"LARGE","CLASSIFICATION_TYPE":"U","NORAD_CAT_ID":"46038","CENTER_NAME":"EARTH","MEAN_ELEMENT_THEORY":"SGP4","MEAN_MOTION_DOT":"0.00009259","ELEMENT_SET_NO":"999","EPHEMERIS_TYPE":"0","PERIAPSIS":"546.119","PERIOD":"95.593","SEMIMAJOR_AXIS":"6925.395"},{"MEAN_MOTION_DOT":"0.00005685","MEAN_ELEMENT_THEORY":"SGP4","ELEMENT_SET_NO":"999","CLASSIFICATION_TYPE":"U","NORAD_CAT_ID":"46039","CENTER_NAME":"EARTH","SEMIMAJOR_AXIS":"6925.402","EPHEMERIS_TYPE":"0","PERIAPSIS":"545.924","PERIOD":"95.593","MEAN_MOTION":"15.06382626","ARG_OF_PERICENTER":"50.3427","FILE":"3728910","APOAPSIS":"548.610","RCS_SIZE":"LARGE","REF_FRAME":"TEME","DECAY_DATE":null,"TLE_LINE1":"1 46039U 20055N   23001.95512663  .00005685  00000-0  40040-3 0  9992","BSTAR":"0.00040040000000","SITE":"AFETR","EPOCH":"2023-01-01T22:55:22.940832","MEAN_MOTION_DDOT":"0.0000000000000","OBJECT_ID":"2020-055N","ECCENTRICITY":"0.00019390","REV_AT_EPOCH":"13312","COUNTRY_CODE":"US","GP_ID":"221965882","OBJECT_TYPE":"PAYLOAD","MEAN_ANOMALY":"309.7733","LAUNCH_DATE":"2020-08-07","TLE_LINE2":"2 46039  53.0549 306.3279 0001939  50.3427 309.7733 15.06382626133124","TIME_SYSTEM":"UTC","INCLINATION":"53.0549","RA_OF_ASC_NODE":"306.3279","OBJECT_NAME":"STARLINK-1569"},{"REV_AT_EPOCH":"13350","ECCENTRICITY":"0.00012680","OBJECT_ID":"2020-055P","MEAN_ANOMALY":"259.0303","GP_ID":"221928496","OBJECT_TYPE":"PAYLOAD","COUNTRY_CODE":"US","SITE":"AFETR","TLE_LINE1":"1 46040U 20055P   23001.32112694 -.00009485  00000-0 -61899-3 0  9994","DECAY_DATE":null,"BSTAR":"-0.00061899000000","MEAN_MOTION_DDOT":"0.0000000000000","EPOCH":"2023-01-01T07:42:25.367616","TIME_SYSTEM":"UTC","OBJECT_NAME":"STARLINK-1576","RA_OF_ASC_NODE":"309.1777","INCLINATION":"53.0558","LAUNCH_DATE":"2020-08-07","TLE_LINE2":"2 46040  53.0558 309.1777 0001268 101.0828 259.0303 15.06385106133502","SEMIMAJOR_AXIS":"6925.394","PERIOD":"95.593","EPHEMERIS_TYPE":"0","PERIAPSIS":"546.381","ELEMENT_SET_NO":"999","MEAN_ELEMENT_THEORY":"SGP4","MEAN_MOTION_DOT":"-0.00009485","NORAD_CAT_ID":"46040","CENTER_NAME":"EARTH","CLASSIFICATION_TYPE":"U","RCS_SIZE":"LARGE","REF_FRAME":"TEME","APOAPSIS":"548.137","FILE":"3728759","ARG_OF_PERICENTER":"101.0828","MEAN_MOTION":"15.06385106"},{"TIME_SYSTEM":"UTC","INCLINATION":"53.0541","OBJECT_NAME":"STARLINK-1580","RA_OF_ASC_NODE":"306.8317","LAUNCH_DATE":"2020-08-07","TLE_LINE2":"2 46041  53.0541 306.8317 0002195  44.1414 315.9750 15.06387361133117","ECCENTRICITY":"0.00021950","OBJECT_ID":"2020-055Q","REV_AT_EPOCH":"13311","COUNTRY_CODE":"US","MEAN_ANOMALY":"315.9750","OBJECT_TYPE":"PAYLOAD","GP_ID":"221965812","TLE_LINE1":"1 46041U 20055Q   23001.86299975 -.00004393  00000-0 -27624-3 0  9993","DECAY_DATE":null,"BSTAR":"-0.00027624000000","SITE":"AFETR","MEAN_MOTION_DDOT":"0.0000000000000","EPOCH":"2023-01-01T20:42:43.178400","RCS_SIZE":"LARGE","REF_FRAME":"TEME","ARG_OF_PERICENTER":"44.1414","MEAN_MOTION":"15.06387361","APOAPSIS":"548.772","FILE":"3728909","SEMIMAJOR_AXIS":"6925.387","PERIAPSIS":"545.732","EPHEMERIS_TYPE":"0","PERIOD":"95.593","MEAN_ELEMENT_THEORY":"SGP4","MEAN_MOTION_DOT":"-0.00004393","ELEMENT_SET_NO":"999","CLASSIFICATION_TYPE":"U","NORAD_CAT_ID":"46041","CENTER_NAME":"EARTH"},{"ARG_OF_PERICENTER":"58.0964","MEAN_MOTION":"15.06403423","APOAPSIS":"548.324","FILE":"3728952","REF_FRAME":"TEME","RCS_SIZE":"LARGE","CLASSIFICATION_TYPE":"U","CENTER_NAME":"EARTH","NORAD_CAT_ID":"46042","MEAN_ELEMENT_THEORY":"SGP4","MEAN_MOTION_DOT":"0.00011414","ELEMENT_SET_NO":"999","PERIAPSIS":"546.082","EPHEMERIS_TYPE":"0","PERIOD":"95.592","SEMIMAJOR_AXIS":"6925.338","TLE_LINE2":"2 46042  53.0540 306.8752 0001619  58.0964 302.0183 15.06403423133580","LAUNCH_DATE":"2020-08-07","INCLINATION":"53.0540","OBJECT_NAME":"STARLINK-1581","RA_OF_ASC_NODE":"306.8752","TIME_SYSTEM":"UTC","MEAN_MOTION_DDOT":"0.0000000000000","EPOCH":"2023-01-01T20:05:30.514272","TLE_LINE1":"1 46042U 20055R   23001.83715873  .00011414  00000-0  78387-3 0  9993","SITE":"AFETR","DECAY_DATE":null,"BSTAR":"0.00078387000000","COUNTRY_CODE":"US","MEAN_ANOMALY":"302.0183","OBJECT_TYPE":"PAYLOAD","GP_ID":"221986856","ECCENTRICITY":"0.00016190","OBJECT_ID":"2020-055R","REV_AT_EPOCH":"13358"}];
